H1 CPF 01  gfz 2021 02 06 01  5371 terrasarx 
H2 0702601  6201 31698    2021 02 06 00 59 42 2021 02 11 00 00 42   120 1 1  0 0 0
H9
10 0 59252  66222.000000  0    5634650.639  -1053618.420   3811630.769
10 0 59252  66342.000000  0    5058687.409  -1136244.366   4526419.540
10 0 59252  66462.000000  0    4393142.676  -1188149.732   5161542.761
10 0 59252  66582.000000  0    3650233.414  -1206974.361   5705854.644
10 0 59252  66702.000000  0    2843555.021  -1191162.307   6149816.778
10 0 59252  66822.000000  0    1987825.003  -1140009.542   6485659.734
10 0 59252  66942.000000  0    1098609.909  -1053692.517   6707513.727
10 0 59252  67062.000000  0     192038.241   -933276.491   6811505.726
10 0 59252  67182.000000  0    -715493.060   -780703.657   6795821.528
10 0 59252  67302.000000  0   -1607613.932   -598762.030   6660734.494
10 0 59252  67422.000000  0   -2468274.871   -391034.692   6408600.910
10 0 59252  67542.000000  0   -3282034.487   -161830.456   6043822.274
10 0 59252  67662.000000  0   -4034338.099     83903.022   5572774.379
10 0 59252  67782.000000  0   -4711782.649    340682.288   5003702.166
10 0 59252  67902.000000  0   -5302362.175    602605.243   4346581.148
10 0 59252  68022.000000  0   -5795689.302    863480.744   3612946.744
10 0 59252  68142.000000  0   -6183186.748   1116967.873   2815694.341
10 0 59252  68262.000000  0   -6458246.350   1356721.863   1968852.891
10 0 59252  68382.000000  0   -6616350.636   1576542.743   1087335.187
10 0 59252  68502.000000  0   -6655154.155   1770523.825    186669.016
10 0 59252  68622.000000  0   -6574519.925   1933195.699   -717285.294
10 0 59252  68742.000000  0   -6376510.825   2059661.337  -1608623.109
10 0 59252  68862.000000  0   -6065337.570   2145719.947  -2471683.290
10 0 59252  68982.000000  0   -5647263.709   2187976.553  -3291331.114
10 0 59252  69102.000000  0   -5130469.243   2183933.427  -4053228.206
10 0 59252  69222.000000  0   -4524878.791   2132061.405  -4744083.076
10 0 59252  69342.000000  0   -3841959.520   2031850.416  -5351878.538
10 0 59252  69462.000000  0   -3094494.658   1883838.607  -5866072.227
10 0 59252  69582.000000  0   -2296338.592   1689619.798  -6277769.497
10 0 59252  69702.000000  0   -1462156.119   1451829.107  -6579866.800
10 0 59252  69822.000000  0    -607152.834   1174107.181  -6767161.748
10 0 59252  69942.000000  0     253197.645    861044.225  -6836432.574
10 0 59252  70062.000000  0    1103426.109    518105.603  -6786487.780
10 0 59252  70182.000000  0    1928340.242    151538.339  -6618186.485
10 0 59252  70302.000000  0    2713290.259   -231739.959  -6334424.256
10 0 59252  70422.000000  0    3444424.607   -624267.450  -5940089.170
10 0 59252  70542.000000  0    4108931.999  -1018178.732  -5441985.041
10 0 59252  70662.000000  0    4695266.529  -1405357.441  -4848725.875
10 0 59252  70782.000000  0    5193354.008  -1777599.931  -4170598.580
10 0 59252  70902.000000  0    5594773.176  -2126785.374  -3419394.821
10 0 59252  71022.000000  0    5892908.634  -2445049.334  -2608213.910
10 0 59252  71142.000000  0    6083070.991  -2724957.234  -1751238.578
10 0 59252  71262.000000  0    6162580.375  -2959673.125   -863487.794
10 0 59252  71382.000000  0    6130811.691  -3143119.823     39448.888
10 0 59252  71502.000000  0    5989198.974  -3270126.211    941690.711
10 0 59252  71622.000000  0    5741199.394  -3336557.953   1827353.255
10 0 59252  71742.000000  0    5392214.006  -3339426.928   2680838.358
10 0 59252  71862.000000  0    4949469.559  -3276977.267   3487116.498
10 0 59252  71982.000000  0    4421864.895  -3148744.810   4231997.883
10 0 59252  72102.000000  0    3819787.147  -2955590.329   4902385.390
10 0 59252  72222.000000  0    3154899.594  -2699705.887   5486507.142
10 0 59252  72342.000000  0    2439907.769  -2384592.172   5974120.694
10 0 59252  72462.000000  0    1688310.868  -2015009.739   6356688.072
10 0 59252  72582.000000  0     914142.564  -1596905.284   6627519.513
10 0 59252  72702.000000  0     131706.265  -1137313.809   6781884.302
10 0 59252  72822.000000  0    -644689.620   -644238.587   6817087.836
10 0 59252  72942.000000  0   -1400992.274   -126511.432   6732514.984
10 0 59252  73062.000000  0   -2123657.616    406365.098   6529640.212
10 0 59252  73182.000000  0   -2799892.056    944391.407   6212003.769
10 0 59252  73302.000000  0   -3417879.590   1477257.405   5785154.167
10 0 59252  73422.000000  0   -3966991.058   1994539.217   5256557.656
10 0 59252  73542.000000  0   -4437972.403   2485903.476   4635474.463
10 0 59252  73662.000000  0   -4823107.583   2941315.176   3932801.365
10 0 59252  73782.000000  0   -5116351.350   3351243.689   3160883.295
10 0 59252  73902.000000  0   -5313430.466   3706863.717   2333298.128
10 0 59252  74022.000000  0   -5411910.709   4000246.773   1464616.532
10 0 59252  74142.000000  0   -5411227.445   4224537.559    570139.941
10 0 59252  74262.000000  0   -5312676.885   4374109.716   -334376.713
10 0 59252  74382.000000  0   -5119370.590   4444698.177  -1233010.548
10 0 59252  74502.000000  0   -4836153.168   4433504.944  -2109960.891
10 0 59252  74622.000000  0   -4469483.907   4339273.425  -2949836.159
10 0 59252  74742.000000  0   -4027287.163   4162330.487  -3737929.315
10 0 59252  74862.000000  0   -3518775.853   3904596.323  -4460476.644
10 0 59252  74982.000000  0   -2954253.555   3569562.730  -5104894.714
10 0 59252  75102.000000  0   -2344901.817   3162241.242  -5659991.967
10 0 59252  75222.000000  0   -1702556.256   2689083.429  -6116154.885
10 0 59252  75342.000000  0   -1039474.791   2157873.054  -6465504.113
10 0 59252  75462.000000  0    -368104.903   1577594.476  -6702018.336
10 0 59252  75582.000000  0     299146.297    958280.058  -6821627.534
10 0 59252  75702.000000  0     950135.351    310838.904  -6822275.799
10 0 59252  75822.000000  0    1573199.235   -353131.631  -6703953.872
10 0 59252  75942.000000  0    2157359.333  -1021549.174  -6468697.640
10 0 59252  76062.000000  0    2692510.554  -1682060.359  -6120557.124
10 0 59252  76182.000000  0    3169594.223  -2322263.349  -5665534.045
10 0 59252  76302.000000  0    3580752.503  -2929937.140  -5111490.495
10 0 59252  76422.000000  0    3919462.064  -3493275.467  -4468023.490
10 0 59252  76542.000000  0    4180641.011  -4001116.605  -3746307.968
10 0 59252  76662.000000  0    4360730.244  -4443166.863  -2958912.950
10 0 59252  76782.000000  0    4457747.344  -4810213.902  -2119589.405
10 0 59252  76902.000000  0    4471309.815  -5094324.256  -1243032.850
10 0 59252  77022.000000  0    4402625.485  -5289019.475   -344624.216
10 0 59252  77142.000000  0    4254450.696  -5389424.856    559845.145
10 0 59252  77262.000000  0    4031017.050  -5392388.104   1454458.264
10 0 59252  77382.000000  0    3737927.656  -5296562.964   2323462.502
10 0 59252  77502.000000  0    3382024.864  -5102455.937   3151555.012
10 0 59252  77622.000000  0    2971234.656  -4812436.477   3924159.359
10 0 59252  77742.000000  0    2514391.029  -4430708.442   4627687.011
10 0 59252  77862.000000  0    2021045.375  -3963245.073   5249778.636
10 0 59252  77982.000000  0    1501265.176  -3417689.267   5779520.504
10 0 59252  78102.000000  0     965426.349  -2803221.055   6207633.004
10 0 59252  78222.000000  0     424004.457  -2130396.775   6526626.953
10 0 59252  78342.000000  0    -112630.496  -1410963.429   6730927.560
10 0 59252  78462.000000  0    -634411.551   -657651.659   6816966.663
10 0 59252  78582.000000  0   -1131762.445    116051.071   6783241.573
10 0 59252  78702.000000  0   -1595772.708    896141.773   6630339.427
10 0 59252  78822.000000  0   -2018356.802   1668354.587   6360927.408
10 0 59252  78942.000000  0   -2392395.522   2418420.687   5979709.232
10 0 59252  79062.000000  0   -2711856.916   3132332.193   5493348.184
10 0 59252  79182.000000  0   -2971895.523   3796605.633   4910357.294
10 0 59252  79302.000000  0   -3168928.723   4398540.830   4240956.727
10 0 59252  79422.000000  0   -3300687.162   4926469.922   3496899.245
10 0 59252  79542.000000  0   -3366238.409   5369991.127   2691265.824
10 0 59252  79662.000000  0   -3365982.743   5720180.828   1838234.461
10 0 59252  79782.000000  0   -3301621.538   5969778.376    952827.145
10 0 59252  79902.000000  0   -3176098.549   6113341.380     50640.215
10 0 59252  80022.000000  0   -2993515.451   6147365.861   -852438.973
10 0 59252  80142.000000  0   -2759024.067   6070366.827  -1740522.219
10 0 59252  80262.000000  0   -2478695.613   5882916.000  -2598010.996
10 0 59252  80382.000000  0   -2159371.912   5587636.362  -3409875.452
10 0 59252  80502.000000  0   -1808504.984   5189158.873  -4161919.840
10 0 59252  80622.000000  0   -1433987.809   4694038.610  -4841029.841
10 0 59252  80742.000000  0   -1043981.202   4110636.055  -5435395.323
10 0 59252  80862.000000  0    -646739.918   3448966.967  -5934708.449
10 0 59252  80982.000000  0    -250441.155   2720522.018  -6330333.485
10 0 59252  81102.000000  0     136980.067   1938061.142  -6615444.202
10 0 59252  81222.000000  0     507984.872   1115389.212  -6785130.601
10 0 59252  81342.000000  0     855572.949    267114.311  -6836475.290
10 0 59252  81462.000000  0    1173411.156   -591607.392  -6768597.947
10 0 59252  81582.000000  0    1455945.511  -1445336.837  -6582667.370
10 0 59252  81702.000000  0    1698495.732  -2278621.855  -6281882.860
10 0 59252  81822.000000  0    1897332.238  -3076269.899  -5871426.098
10 0 59252  81942.000000  0    2049733.654  -3823622.074  -5358382.770
10 0 59252  82062.000000  0    2154023.942  -4506824.023  -4751630.348
10 0 59252  82182.000000  0    2209587.999  -5113084.455  -4061694.341
10 0 59252  82302.000000  0    2216865.869  -5630920.264  -3300576.565
10 0 59252  82422.000000  0    2177324.968  -6050383.484  -2481554.431
10 0 59252  82542.000000  0    2093410.403  -6363263.949  -1618953.867
10 0 59252  82662.000000  0    1968473.229  -6563260.854   -727899.035
99
